STARLINK-33863          
1 63864U 25094A   25324.97380333  .00003338  00000+0  28734-3 0  9992
2 63864  70.0007 148.7731 0002005 283.4503  76.6432 14.98342922 30911
STARLINK-33897          
1 63865U 25094B   25324.94460441  .00005837  00000+0  49659-3 0  9994
2 63865  69.9992 148.6662 0003533 269.5879  90.4875 14.98330355 31139
STARLINK-34022          
1 63866U 25094C   25324.95727090  .00003770  00000+0  32353-3 0  9999
2 63866  70.0024 148.7093 0002270 278.9826  81.1076 14.98334721 30917
STARLINK-33979          
1 63867U 25094D   25324.94875459  .00000832  00000+0  77474-4 0  9992
2 63867  69.9995 148.6800 0002571 282.3045  77.7826 14.98342926 30913
STARLINK-34007          
1 63868U 25094E   25324.96964875  .00009547  00000+0  80653-3 0  9990
2 63868  69.9984 148.7565 0003003 265.1305  94.9511 14.98345813 30910
STARLINK-34006          
1 63869U 25094F   25324.92806362  .00004704  00000+0  40161-3 0  9993
2 63869  69.9992 148.6056 0002584 267.6222  92.4641 14.98348492 30915
STARLINK-33986          
1 63870U 25094G   25324.86966206 -.00148130  00000+0 -12813-1 0  9997
2 63870  69.9966 148.8027 0002422 292.5600  67.5302 14.97901445 30904
STARLINK-34013          
1 63871U 25094H   25324.92371286  .00002555  00000+0  22177-3 0  9997
2 63871  69.9964 148.5964 0003201 260.0392 100.0406 14.98337848 30914
STARLINK-34059          
1 63872U 25094J   25324.96545237  .00002935  00000+0  25359-3 0  9998
2 63872  70.0008 148.7417 0002801 268.6756  91.4082 14.98336858 30918
STARLINK-33987          
1 63873U 25094K   25324.93206260  .00002832  00000+0  24498-3 0  9995
2 63873  69.9998 148.6234 0002785 275.0432  85.0409 14.98335328 30917
STARLINK-34052          
1 63874U 25094L   25324.89450082  .00011050  00000+0  93087-3 0  9996
2 63874  70.0018 148.8929 0002995 276.3561  83.7257 14.98395223 30902
STARLINK-34023          
1 63875U 25094M   25324.92789330  .00004967  00000+0  42349-3 0  9996
2 63875  69.9987 148.6054 0003106 258.3461 101.7350 14.98353173 30910
STARLINK-34061          
1 63876U 25094N   25324.97396669  .00004737  00000+0  40440-3 0  9996
2 63876  70.0011 148.7670 0002410 273.6382  86.4501 14.98340327 30910
STARLINK-33778          
1 63877U 25094P   25324.94892704  .00001583  00000+0  14048-3 0  9996
2 63877  69.9968 148.6738 0004175 265.9012  94.1669 14.98330666 30913
STARLINK-33901          
1 63878U 25094Q   25324.96561699  .00002257  00000+0  19689-3 0  9990
2 63878  70.0017 148.7338 0003103 274.8370  85.2434 14.98335348 30918
STARLINK-33812          
1 63879U 25094R   25324.94041450  .00012980  00000+0  10929-2 0  9998
2 63879  70.0024 148.6446 0003151 268.4353  91.6445 14.98352384 30911
STARLINK-33779          
1 63880U 25094S   25324.95765815 -.00702276  00000+0 -66216-1 0  9994
2 63880  69.9998 148.7124 0018577  48.1218 312.1521 14.96348912 30911
