[{"OBJECT_NAME":"STARLINK-33863","OBJECT_ID":"2025-094A","EPOCH":"2025-11-20T23:22:16.607712","MEAN_MOTION":14.98342922,"ECCENTRICITY":0.0002005,"INCLINATION":70.0007,"RA_OF_ASC_NODE":148.7731,"ARG_OF_PERICENTER":283.4503,"MEAN_ANOMALY":76.6432,"EPHEMERIS_TYPE":0,"CLASSIFICATION_TYPE":"U","NORAD_CAT_ID":63864,"ELEMENT_SET_NO":999,"REV_AT_EPOCH":3091,"BSTAR":0.00028734,"MEAN_MOTION_DOT":3.338e-5,"MEAN_MOTION_DDOT":0},{"OBJECT_NAME":"STARLINK-33897","OBJECT_ID":"2025-094B","EPOCH":"2025-11-20T22:40:13.821024","MEAN_MOTION":14.98330355,"ECCENTRICITY":0.0003533,"INCLINATION":69.9992,"RA_OF_ASC_NODE":148.6662,"ARG_OF_PERICENTER":269.5879,"MEAN_ANOMALY":90.4875,"EPHEMERIS_TYPE":0,"CLASSIFICATION_TYPE":"U","NORAD_CAT_ID":63865,"ELEMENT_SET_NO":999,"REV_AT_EPOCH":3113,"BSTAR":0.00049659,"MEAN_MOTION_DOT":5.837e-5,"MEAN_MOTION_DDOT":0},{"OBJECT_NAME":"STARLINK-34022","OBJECT_ID":"2025-094C","EPOCH":"2025-11-20T22:58:28.205760","MEAN_MOTION":14.98334721,"ECCENTRICITY":0.000227,"INCLINATION":70.0024,"RA_OF_ASC_NODE":148.7093,"ARG_OF_PERICENTER":278.9826,"MEAN_ANOMALY":81.1076,"EPHEMERIS_TYPE":0,"CLASSIFICATION_TYPE":"U","NORAD_CAT_ID":63866,"ELEMENT_SET_NO":999,"REV_AT_EPOCH":3091,"BSTAR":0.00032353,"MEAN_MOTION_DOT":3.77e-5,"MEAN_MOTION_DDOT":0},{"OBJECT_NAME":"STARLINK-33979","OBJECT_ID":"2025-094D","EPOCH":"2025-11-20T22:46:12.396576","MEAN_MOTION":14.98342926,"ECCENTRICITY":0.0002571,"INCLINATION":69.9995,"RA_OF_ASC_NODE":148.68,"ARG_OF_PERICENTER":282.3045,"MEAN_ANOMALY":77.7826,"EPHEMERIS_TYPE":0,"CLASSIFICATION_TYPE":"U","NORAD_CAT_ID":63867,"ELEMENT_SET_NO":999,"REV_AT_EPOCH":3091,"BSTAR":7.7474e-5,"MEAN_MOTION_DOT":8.32e-6,"MEAN_MOTION_DDOT":0},{"OBJECT_NAME":"STARLINK-34007","OBJECT_ID":"2025-094E","EPOCH":"2025-11-20T23:16:17.652000","MEAN_MOTION":14.98345813,"ECCENTRICITY":0.0003003,"INCLINATION":69.9984,"RA_OF_ASC_NODE":148.7565,"ARG_OF_PERICENTER":265.1305,"MEAN_ANOMALY":94.9511,"EPHEMERIS_TYPE":0,"CLASSIFICATION_TYPE":"U","NORAD_CAT_ID":63868,"ELEMENT_SET_NO":999,"REV_AT_EPOCH":3091,"BSTAR":0.00080653,"MEAN_MOTION_DOT":9.547e-5,"MEAN_MOTION_DDOT":0},{"OBJECT_NAME":"STARLINK-34006","OBJECT_ID":"2025-094F","EPOCH":"2025-11-20T22:16:24.696768","MEAN_MOTION":14.98348492,"ECCENTRICITY":0.0002584,"INCLINATION":69.9992,"RA_OF_ASC_NODE":148.6056,"ARG_OF_PERICENTER":267.6222,"MEAN_ANOMALY":92.4641,"EPHEMERIS_TYPE":0,"CLASSIFICATION_TYPE":"U","NORAD_CAT_ID":63869,"ELEMENT_SET_NO":999,"REV_AT_EPOCH":3091,"BSTAR":0.00040161,"MEAN_MOTION_DOT":4.704e-5,"MEAN_MOTION_DDOT":0},{"OBJECT_NAME":"STARLINK-33986","OBJECT_ID":"2025-094G","EPOCH":"2025-11-20T20:52:18.801984","MEAN_MOTION":14.97901445,"ECCENTRICITY":0.0002422,"INCLINATION":69.9966,"RA_OF_ASC_NODE":148.8027,"ARG_OF_PERICENTER":292.56,"MEAN_ANOMALY":67.5302,"EPHEMERIS_TYPE":0,"CLASSIFICATION_TYPE":"U","NORAD_CAT_ID":63870,"ELEMENT_SET_NO":999,"REV_AT_EPOCH":3090,"BSTAR":-0.012813,"MEAN_MOTION_DOT":-0.0014813,"MEAN_MOTION_DDOT":0},{"OBJECT_NAME":"STARLINK-34013","OBJECT_ID":"2025-094H","EPOCH":"2025-11-20T22:10:08.791104","MEAN_MOTION":14.98337848,"ECCENTRICITY":0.0003201,"INCLINATION":69.9964,"RA_OF_ASC_NODE":148.5964,"ARG_OF_PERICENTER":260.0392,"MEAN_ANOMALY":100.0406,"EPHEMERIS_TYPE":0,"CLASSIFICATION_TYPE":"U","NORAD_CAT_ID":63871,"ELEMENT_SET_NO":999,"REV_AT_EPOCH":3091,"BSTAR":0.00022177,"MEAN_MOTION_DOT":2.555e-5,"MEAN_MOTION_DDOT":0},{"OBJECT_NAME":"STARLINK-34059","OBJECT_ID":"2025-094J","EPOCH":"2025-11-20T23:10:15.084768","MEAN_MOTION":14.98336858,"ECCENTRICITY":0.0002801,"INCLINATION":70.0008,"RA_OF_ASC_NODE":148.7417,"ARG_OF_PERICENTER":268.6756,"MEAN_ANOMALY":91.4082,"EPHEMERIS_TYPE":0,"CLASSIFICATION_TYPE":"U","NORAD_CAT_ID":63872,"ELEMENT_SET_NO":999,"REV_AT_EPOCH":3091,"BSTAR":0.00025359,"MEAN_MOTION_DOT":2.935e-5,"MEAN_MOTION_DDOT":0},{"OBJECT_NAME":"STARLINK-33987","OBJECT_ID":"2025-094K","EPOCH":"2025-11-20T22:22:10.208640","MEAN_MOTION":14.98335328,"ECCENTRICITY":0.0002785,"INCLINATION":69.9998,"RA_OF_ASC_NODE":148.6234,"ARG_OF_PERICENTER":275.0432,"MEAN_ANOMALY":85.0409,"EPHEMERIS_TYPE":0,"CLASSIFICATION_TYPE":"U","NORAD_CAT_ID":63873,"ELEMENT_SET_NO":999,"REV_AT_EPOCH":3091,"BSTAR":0.00024498,"MEAN_MOTION_DOT":2.832e-5,"MEAN_MOTION_DDOT":0},{"OBJECT_NAME":"STARLINK-34052","OBJECT_ID":"2025-094L","EPOCH":"2025-11-20T21:28:04.870848","MEAN_MOTION":14.98395223,"ECCENTRICITY":0.0002995,"INCLINATION":70.0018,"RA_OF_ASC_NODE":148.8929,"ARG_OF_PERICENTER":276.3561,"MEAN_ANOMALY":83.7257,"EPHEMERIS_TYPE":0,"CLASSIFICATION_TYPE":"U","NORAD_CAT_ID":63874,"ELEMENT_SET_NO":999,"REV_AT_EPOCH":3090,"BSTAR":0.00093087,"MEAN_MOTION_DOT":0.0001105,"MEAN_MOTION_DDOT":0},{"OBJECT_NAME":"STARLINK-34023","OBJECT_ID":"2025-094M","EPOCH":"2025-11-20T22:16:09.981120","MEAN_MOTION":14.98353173,"ECCENTRICITY":0.0003106,"INCLINATION":69.9987,"RA_OF_ASC_NODE":148.6054,"ARG_OF_PERICENTER":258.3461,"MEAN_ANOMALY":101.735,"EPHEMERIS_TYPE":0,"CLASSIFICATION_TYPE":"U","NORAD_CAT_ID":63875,"ELEMENT_SET_NO":999,"REV_AT_EPOCH":3091,"BSTAR":0.00042349,"MEAN_MOTION_DOT":4.967e-5,"MEAN_MOTION_DDOT":0},{"OBJECT_NAME":"STARLINK-34061","OBJECT_ID":"2025-094N","EPOCH":"2025-11-20T23:22:30.722016","MEAN_MOTION":14.98340327,"ECCENTRICITY":0.000241,"INCLINATION":70.0011,"RA_OF_ASC_NODE":148.767,"ARG_OF_PERICENTER":273.6382,"MEAN_ANOMALY":86.4501,"EPHEMERIS_TYPE":0,"CLASSIFICATION_TYPE":"U","NORAD_CAT_ID":63876,"ELEMENT_SET_NO":999,"REV_AT_EPOCH":3091,"BSTAR":0.0004044,"MEAN_MOTION_DOT":4.737e-5,"MEAN_MOTION_DDOT":0},{"OBJECT_NAME":"STARLINK-33778","OBJECT_ID":"2025-094P","EPOCH":"2025-11-20T22:46:27.296256","MEAN_MOTION":14.98330666,"ECCENTRICITY":0.0004175,"INCLINATION":69.9968,"RA_OF_ASC_NODE":148.6738,"ARG_OF_PERICENTER":265.9012,"MEAN_ANOMALY":94.1669,"EPHEMERIS_TYPE":0,"CLASSIFICATION_TYPE":"U","NORAD_CAT_ID":63877,"ELEMENT_SET_NO":999,"REV_AT_EPOCH":3091,"BSTAR":0.00014048,"MEAN_MOTION_DOT":1.583e-5,"MEAN_MOTION_DDOT":0},{"OBJECT_NAME":"STARLINK-33901","OBJECT_ID":"2025-094Q","EPOCH":"2025-11-20T23:10:29.307936","MEAN_MOTION":14.98335348,"ECCENTRICITY":0.0003103,"INCLINATION":70.0017,"RA_OF_ASC_NODE":148.7338,"ARG_OF_PERICENTER":274.837,"MEAN_ANOMALY":85.2434,"EPHEMERIS_TYPE":0,"CLASSIFICATION_TYPE":"U","NORAD_CAT_ID":63878,"ELEMENT_SET_NO":999,"REV_AT_EPOCH":3091,"BSTAR":0.00019689,"MEAN_MOTION_DOT":2.257e-5,"MEAN_MOTION_DDOT":0},{"OBJECT_NAME":"STARLINK-33812","OBJECT_ID":"2025-094R","EPOCH":"2025-11-20T22:34:11.812800","MEAN_MOTION":14.98352384,"ECCENTRICITY":0.0003151,"INCLINATION":70.0024,"RA_OF_ASC_NODE":148.6446,"ARG_OF_PERICENTER":268.4353,"MEAN_ANOMALY":91.6445,"EPHEMERIS_TYPE":0,"CLASSIFICATION_TYPE":"U","NORAD_CAT_ID":63879,"ELEMENT_SET_NO":999,"REV_AT_EPOCH":3091,"BSTAR":0.0010929,"MEAN_MOTION_DOT":0.0001298,"MEAN_MOTION_DDOT":0},{"OBJECT_NAME":"STARLINK-33779","OBJECT_ID":"2025-094S","EPOCH":"2025-11-20T22:59:01.664160","MEAN_MOTION":14.96348912,"ECCENTRICITY":0.0018577,"INCLINATION":69.9998,"RA_OF_ASC_NODE":148.7124,"ARG_OF_PERICENTER":48.1218,"MEAN_ANOMALY":312.1521,"EPHEMERIS_TYPE":0,"CLASSIFICATION_TYPE":"U","NORAD_CAT_ID":63880,"ELEMENT_SET_NO":999,"REV_AT_EPOCH":3091,"BSTAR":-0.066216,"MEAN_MOTION_DOT":-0.00702276,"MEAN_MOTION_DDOT":0}]
